NORAD_CAT_ID,OBJECT_NAME,OBJECT_TYPE,EPOCH,MEAN_MOTION,ECCENTRICITY,INCLINATION,RA_OF_ASC_NODE,ARG_OF_PERICENTER,MEAN_ANOMALY,BSTAR,MEAN_MOTION_DOT,MEAN_MOTION_DDOT,TLE_LINE0,TLE_LINE1,TLE_LINE2,SEMIMAJOR_AXIS,PERIOD,APOGEE,PERIGEE,DECAYED
55653.0,STARLINK-5067,PAYLOAD,2023-05-29 14:00:01,15.511927,0.0003027,70.0003,226.9328,273.1791,37.8858,0.0009227,0.00054344,0.0,0 STARLINK-5067,1 55653U 23021AB  23149.58334491  .00054344  00000-0  92270-3 0  9991,2 55653  70.0003 226.9328 0003027 273.1791  37.8858 15.51192700 16355,6791.38,92.832,415.3,411.189,0.0
55653.0,STARLINK-5067,PAYLOAD,2023-05-29 14:12:44,15.52059773,0.0002568,69.998,226.91,258.8462,101.2435,-0.0029315,-0.00173728,0.0,0 STARLINK-5067,1 55653U 23021AB  23149.59218048 -.00173728  00000-0 -29315-2 0  9990,2 55653  69.9980 226.9100 0002568 258.8462 101.2435 15.52059773 16662,6788.85,92.78,412.458,408.972,0.0
55653.0,STARLINK-5067,PAYLOAD,2023-05-29 21:56:55,15.51815204,0.00024,69.9989,226.0299,291.1027,68.9903,-0.002152,-0.001272,0.0,0 STARLINK-5067,1 55653U 23021AB  23149.91453614 -.00127200  00000-0 -21520-2 0  9990,2 55653  69.9989 226.0299 0002400 291.1027  68.9903 15.51815204 16716,6789.563,92.795,413.058,409.799,0.0
55653.0,STARLINK-5067,PAYLOAD,2023-05-30 06:00:00,15.5125179,0.0003009,70.0005,225.1104,266.9312,165.9352,-1.4648e-05,-1.026e-05,0.0,0 STARLINK-5067,1 55653U 23021AB  23150.25001157 -.00001026  00000-0 -14648-4 0  9992,2 55653  70.0005 225.1104 0003009 266.9312 165.9352 15.51251790 16468,6791.207,92.828,415.116,411.029,0.0
55653.0,STARLINK-5067,PAYLOAD,2023-05-30 14:00:01,15.51228245,0.0003034,70.0003,224.1991,274.4282,219.3896,0.00086697,0.00051095,0.0,0 STARLINK-5067,1 55653U 23021AB  23150.58334491  .00051095  00000-0  86697-3 0  9999,2 55653  70.0003 224.1991 0003034 274.4282 219.3896 15.51228245  1300,6791.276,92.83,415.201,411.08,0.0
55653.0,STARLINK-5067,PAYLOAD,2023-05-31 00:00:02,15.51437611,0.0003227,70.0003,223.0598,268.2534,31.7917,-0.011414,-0.00624974,0.0,0 STARLINK-5067,1 55653U 23021AB  23151.00002315 -.00624974  00000-0 -11414-1 0  9991,2 55653  70.0003 223.0598 0003227 268.2534  31.7917 15.51437611  1305,6790.665,92.817,414.721,410.339,0.0
55653.0,STARLINK-5067,PAYLOAD,2023-05-31 06:00:02,15.51172904,0.0003255,70.0007,222.3763,265.5952,350.1761,-0.018061,-0.00970234,0.0,0 STARLINK-5067,1 55653U 23021AB  23151.25002315 -.00970234  00000-0 -18061-1 0  9996,2 55653  70.0007 222.3763 0003255 265.5952 350.1761 15.51172904 16616,6791.437,92.833,415.513,411.092,0.0
55653.0,STARLINK-5067,PAYLOAD,2023-05-31 14:00:01,15.50457086,0.0003532,70.0006,221.4655,273.219,42.9199,-0.016605,-0.00865732,0.0,0 STARLINK-5067,1 55653U 23021AB  23151.58334491 -.00865732  00000-0 -16605-1 0  9993,2 55653  70.0006 221.4655 0003532 273.2190  42.9199 15.50457086  1300,6793.528,92.876,417.792,412.993,0.0
55653.0,STARLINK-5067,PAYLOAD,2023-05-31 22:00:00,15.4980935,0.000361,70.0003,220.5555,270.5836,105.1791,-0.017359,-0.00882823,0.0,0 STARLINK-5067,1 55653U 23021AB  23151.91667824 -.00882823  00000-0 -17359-1 0  9996,2 55653  70.0003 220.5555 0003610 270.5836 105.1791 15.49809350 16725,6795.42,92.915,419.738,414.832,0.0
55653.0,STARLINK-5067,PAYLOAD,2023-06-01 12:00:02,15.48660866,0.0003615,70.0003,218.9655,273.9028,114.3855,-0.017702,-0.00866066,0.0,0 STARLINK-5067,1 55653U 23021AB  23152.50002315 -.00866066  00000-0 -17702-1 0  9993,2 55653  70.0003 218.9655 0003615 273.9028 114.3855 15.48660866  1309,6798.78,92.984,423.102,418.187,0.0
55653.0,STARLINK-5067,PAYLOAD,2023-06-01 22:00:00,15.4785014,0.0003358,70.0003,217.8314,271.2186,278.7253,-0.018533,-0.00879895,0.0,0 STARLINK-5067,1 55653U 23021AB  23152.91667824 -.00879895  00000-0 -18533-1 0  9997,2 55653  70.0003 217.8314 0003358 271.2186 278.7253 15.47850140 16879,6801.153,93.032,425.302,420.735,0.0
55653.0,STARLINK-5067,PAYLOAD,2023-06-02 12:41:51,15.47276335,0.0003737,70.0003,216.168,268.8348,91.2408,-0.0086608,-0.00420258,0.0,0 STARLINK-5067,1 55653U 23021AB  23153.52906360 -.00420258  00000-0 -86608-2 0  9990,2 55653  70.0003 216.1680 0003737 268.8348  91.2408 15.47276335 17273,6802.835,93.067,427.242,422.157,0.0
55653.0,STARLINK-5067,PAYLOAD,2023-06-02 14:00:01,15.46550059,0.0003485,69.9999,216.0201,273.9583,28.1859,-0.019129,-0.00869084,0.0,0 STARLINK-5067,1 55653U 23021AB  23153.58334491 -.00869084  00000-0 -19129-1 0  9993,2 55653  69.9999 216.0201 0003485 273.9583  28.1859 15.46550059 16972,6804.964,93.11,429.201,424.458,0.0
55653.0,STARLINK-5067,PAYLOAD,2023-06-02 22:00:00,15.45881685,0.0003422,69.9998,215.1155,271.2697,85.8172,-0.019352,-0.00859983,0.0,0 STARLINK-5067,1 55653U 23021AB  23153.91667824 -.00859983  00000-0 -19352-1 0  9994,2 55653  69.9998 215.1155 0003422 271.2697  85.8172 15.45881685  1307,6806.926,93.151,431.12,426.461,0.0
55653.0,STARLINK-5067,PAYLOAD,2023-06-03 06:00:00,15.45297836,0.0003441,70.0,214.2121,270.8307,140.3819,-0.022388,-0.00978187,0.0,0 STARLINK-5067,1 55653U 23021AB  23154.25001157 -.00978187  00000-0 -22388-1 0  9994,2 55653  70.0000 214.2121 0003441 270.8307 140.3819 15.45297836 17087,6808.64,93.186,432.848,428.162,0.0
55653.0,STARLINK-5067,PAYLOAD,2023-06-03 13:32:56,15.45169928,0.0003253,69.9994,213.3614,271.5194,88.5617,-0.010194,-0.00457783,0.0,0 STARLINK-5067,1 55653U 23021AB  23154.56454842 -.00457783  00000-0 -10194-1 0  9997,2 55653  69.9994 213.3614 0003253 271.5194  88.5617 15.45169928 17434,6809.016,93.194,433.096,428.666,0.0
55653.0,STARLINK-5067,PAYLOAD,2023-06-03 22:00:00,15.43921711,0.0003199,69.9993,212.4074,271.2761,245.9087,-0.020455,-0.00861928,0.0,0 STARLINK-5067,1 55653U 23021AB  23154.91667824 -.00861928  00000-0 -20455-1 0  9993,2 55653  69.9993 212.4074 0003199 271.2761 245.9087 15.43921711 17185,6812.685,93.269,436.73,432.371,0.0
55653.0,STARLINK-5067,PAYLOAD,2023-06-04 14:00:01,15.42644369,0.0003212,69.9993,210.6063,273.9886,346.069,-0.022314,-0.00897527,0.0,0 STARLINK-5067,1 55653U 23021AB  23155.58335648 -.00897527  00000-0 -22314-1 0  9993,2 55653  69.9993 210.6063 0003212 273.9886 346.0690 15.42644369 17280,6816.445,93.346,440.5,436.121,0.0
55653.0,STARLINK-5067,PAYLOAD,2023-06-04 16:00:00,15.42505374,0.0003318,69.999,210.3815,275.688,86.9309,-0.023604,-0.00941159,0.0,0 STARLINK-5067,1 55653U 23021AB  23155.66667824 -.00941159  00000-0 -23604-1 0  9990,2 55653  69.9990 210.3815 0003318 275.6880  86.9309 15.42505374  1304,6816.855,93.355,440.982,436.458,0.0
55653.0,STARLINK-5067,PAYLOAD,2023-06-04 20:39:31,15.42779942,0.0002345,70.0017,209.8622,294.9482,65.1456,-0.0086464,-0.00362389,0.0,0 STARLINK-5067,1 55653U 23021AB  23155.86078112 -.00362389  00000-0 -86464-2 0  9994,2 55653  70.0017 209.8622 0002345 294.9482  65.1456 15.42779942 17636,6816.046,93.338,439.509,436.313,0.0
55653.0,STARLINK-5067,PAYLOAD,2023-06-05 06:00:00,15.41377567,0.0003343,69.999,208.8091,269.8903,89.788,-0.025331,-0.00969916,0.0,0 STARLINK-5067,1 55653U 23021AB  23156.25001157 -.00969916  00000-0 -25331-1 0  9997,2 55653  69.9990 208.8091 0003343 269.8903  89.7880 15.41377567 17392,6820.18,93.423,444.325,439.765,0.0
55653.0,STARLINK-5067,PAYLOAD,2023-06-05 14:00:01,15.4069104,0.0003263,69.9986,207.9117,277.8974,130.5233,-0.023996,-0.00903625,0.0,0 STARLINK-5067,1 55653U 23021AB  23156.58335648 -.00903625  00000-0 -23996-1 0  9998,2 55653  69.9986 207.9117 0003263 277.8974 130.5233 15.40691040  1309,6822.206,93.465,446.297,441.845,0.0
55653.0,STARLINK-5067,PAYLOAD,2023-06-05 22:00:00,15.40002307,0.0003199,69.9987,207.0153,272.3283,183.9322,-0.022896,-0.00847203,0.0,0 STARLINK-5067,1 55653U 23021AB  23156.91667824 -.00847203  00000-0 -22896-1 0  9996,2 55653  69.9987 207.0153 0003199 272.3283 183.9322 15.40002307 17492,6824.24,93.506,448.288,443.921,0.0
55653.0,STARLINK-5067,PAYLOAD,2023-06-06 00:00:00,15.39855837,0.0003128,69.9986,206.7914,269.2456,288.8564,-0.023491,-0.00863667,0.0,0 STARLINK-5067,1 55653U 23021AB  23157.00001157 -.00863667  00000-0 -23491-1 0  9992,2 55653  69.9986 206.7914 0003128 269.2456 288.8564 15.39855837  1309,6824.672,93.515,448.672,444.402,0.0
55653.0,STARLINK-5067,PAYLOAD,2023-06-06 06:00:00,15.39414678,0.0003152,69.9988,206.1198,272.1866,231.165,-0.026807,-0.00962338,0.0,0 STARLINK-5067,1 55653U 23021AB  23157.25001157 -.00962338  00000-0 -26807-1 0  9998,2 55653  69.9988 206.1198 0003152 272.1866 231.1650 15.39414678 17548,6825.976,93.542,449.993,445.689,0.0
55653.0,STARLINK-5067,PAYLOAD,2023-06-06 14:00:01,15.38730554,0.0003125,69.9984,205.225,277.2487,272.4347,-0.025469,-0.00899312,0.0,0 STARLINK-5067,1 55653U 23021AB  23157.58334491 -.00899312  00000-0 -25469-1 0  9998,2 55653  69.9984 205.2250 0003125 277.2487 272.4347 15.38730554  1309,6827.999,93.584,451.998,447.73,0.0
55653.0,STARLINK-5067,PAYLOAD,2023-06-06 20:00:01,15.38234139,0.0003142,69.9984,204.5545,274.3974,219.5217,-0.025867,-0.00898695,0.0,0 STARLINK-5067,1 55653U 23021AB  23157.83334491 -.00898695  00000-0 -25867-1 0  9991,2 55653  69.9984 204.5545 0003142 274.3974 219.5217 15.38234139 17635,6829.468,93.614,453.479,449.187,0.0
55653.0,STARLINK-5067,PAYLOAD,2023-06-07 14:00:01,15.36776562,0.0003317,69.9986,202.5459,276.0751,47.8905,-0.027289,-0.00903794,0.0,0 STARLINK-5067,1 55653U 23021AB  23158.58334491 -.00903794  00000-0 -27289-1 0  9991,2 55653  69.9986 202.5459 0003317 276.0751  47.8905 15.36776562 17753,6833.786,93.703,457.917,453.384,0.0
55653.0,STARLINK-5067,PAYLOAD,2023-06-07 22:00:00,15.3609056,0.0003349,69.9986,201.6547,270.9253,96.2476,-0.026079,-0.00849187,0.0,0 STARLINK-5067,1 55653U 23021AB  23158.91667824 -.00849187  00000-0 -26079-1 0  9998,2 55653  69.9986 201.6547 0003349 270.9253  96.2476 15.36090560  1308,6835.82,93.744,459.974,455.396,0.0
55653.0,STARLINK-5067,PAYLOAD,2023-06-08 06:00:00,15.35493801,0.0003337,69.999,200.7643,271.8461,137.7282,-0.03008,-0.00951518,0.0,0 STARLINK-5067,1 55653U 23021AB  23159.25001157 -.00951518  00000-0 -30080-1 0  9996,2 55653  69.9990 200.7643 0003337 271.8461 137.7282 15.35493801 17855,6837.591,93.781,461.738,457.174,0.0
